[{"OBJECT_NAME":"PROBA-1","OBJECT_ID":"2001-049B","EPOCH":"2026-03-04T20:15:12.698208","MEAN_MOTION":15.06989543,"ECCENTRICITY":0.0056986,"INCLINATION":97.9622,"RA_OF_ASC_NODE":68.7541,"ARG_OF_PERICENTER":114.9006,"MEAN_ANOMALY":245.8158,"EPHEMERIS_TYPE":0,"CLASSIFICATION_TYPE":"U","NORAD_CAT_ID":26958,"ELEMENT_SET_NO":999,"REV_AT_EPOCH":32790,"BSTAR":0.00019416,"MEAN_MOTION_DOT":2.944e-5,"MEAN_MOTION_DDOT":0},{"OBJECT_NAME":"CUTE-1 (CO-55)","OBJECT_ID":"2003-031E","EPOCH":"2026-03-04T12:08:12.701184","MEAN_MOTION":14.24261171,"ECCENTRICITY":0.0010519,"INCLINATION":98.6779,"RA_OF_ASC_NODE":73.3688,"ARG_OF_PERICENTER":125.9821,"MEAN_ANOMALY":234.2335,"EPHEMERIS_TYPE":0,"CLASSIFICATION_TYPE":"U","NORAD_CAT_ID":27844,"ELEMENT_SET_NO":999,"REV_AT_EPOCH":17677,"BSTAR":0.00022228,"MEAN_MOTION_DOT":4.69e-6,"MEAN_MOTION_DDOT":0},{"OBJECT_NAME":"CUBESAT XI-IV (CO-57)","OBJECT_ID":"2003-031J","EPOCH":"2026-03-03T22:47:58.788672","MEAN_MOTION":14.23556668,"ECCENTRICITY":0.0010137,"INCLINATION":98.6808,"RA_OF_ASC_NODE":72.6171,"ARG_OF_PERICENTER":144.034,"MEAN_ANOMALY":216.1522,"EPHEMERIS_TYPE":0,"CLASSIFICATION_TYPE":"U","NORAD_CAT_ID":27848,"ELEMENT_SET_NO":999,"REV_AT_EPOCH":17640,"BSTAR":0.00019861,"MEAN_MOTION_DOT":4.09e-6,"MEAN_MOTION_DDOT":0},{"OBJECT_NAME":"APRIZESAT 4","OBJECT_ID":"2009-041D","EPOCH":"2026-03-04T04:36:48.081888","MEAN_MOTION":14.83696823,"ECCENTRICITY":0.00422744,"INCLINATION":98.1497,"RA_OF_ASC_NODE":136.4014,"ARG_OF_PERICENTER":303.0599,"MEAN_ANOMALY":56.6557,"EPHEMERIS_TYPE":0,"CLASSIFICATION_TYPE":"U","NORAD_CAT_ID":35684,"ELEMENT_SET_NO":999,"REV_AT_EPOCH":89579,"BSTAR":0.00015965538,"MEAN_MOTION_DOT":1.28e-5,"MEAN_MOTION_DDOT":0},{"OBJECT_NAME":"APRIZESAT 3","OBJECT_ID":"2009-041F","EPOCH":"2026-03-04T15:03:40.272480","MEAN_MOTION":14.9587688,"ECCENTRICITY":0.0063217,"INCLINATION":98.189,"RA_OF_ASC_NODE":211.9601,"ARG_OF_PERICENTER":53.2921,"MEAN_ANOMALY":307.4084,"EPHEMERIS_TYPE":0,"CLASSIFICATION_TYPE":"U","NORAD_CAT_ID":35686,"ELEMENT_SET_NO":999,"REV_AT_EPOCH":90074,"BSTAR":0.00028644,"MEAN_MOTION_DOT":3.266e-5,"MEAN_MOTION_DDOT":0},{"OBJECT_NAME":"PROBA-2","OBJECT_ID":"2009-059B","EPOCH":"2026-03-04T18:25:59.895840","MEAN_MOTION":14.54787265,"ECCENTRICITY":0.001214,"INCLINATION":98.2426,"RA_OF_ASC_NODE":248.57,"ARG_OF_PERICENTER":240.6141,"MEAN_ANOMALY":119.3844,"EPHEMERIS_TYPE":0,"CLASSIFICATION_TYPE":"U","NORAD_CAT_ID":36037,"ELEMENT_SET_NO":999,"REV_AT_EPOCH":86634,"BSTAR":0.00011465,"MEAN_MOTION_DOT":4.46e-6,"MEAN_MOTION_DDOT":0},{"OBJECT_NAME":"APRIZESAT 5","OBJECT_ID":"2011-044E","EPOCH":"2026-03-04T18:07:55.869600","MEAN_MOTION":14.8083879,"ECCENTRICITY":0.0052081,"INCLINATION":98.2403,"RA_OF_ASC_NODE":353.8917,"ARG_OF_PERICENTER":340.5447,"MEAN_ANOMALY":19.3775,"EPHEMERIS_TYPE":0,"CLASSIFICATION_TYPE":"U","NORAD_CAT_ID":37792,"ELEMENT_SET_NO":999,"REV_AT_EPOCH":78333,"BSTAR":0.00026999,"MEAN_MOTION_DOT":2.073e-5,"MEAN_MOTION_DDOT":0},{"OBJECT_NAME":"APRIZESAT 6","OBJECT_ID":"2011-044F","EPOCH":"2026-03-04T06:36:23.918112","MEAN_MOTION":14.76739097,"ECCENTRICITY":0.00444841,"INCLINATION":98.2423,"RA_OF_ASC_NODE":331.6159,"ARG_OF_PERICENTER":62.3796,"MEAN_ANOMALY":52.8397,"EPHEMERIS_TYPE":0,"CLASSIFICATION_TYPE":"U","NORAD_CAT_ID":37793,"ELEMENT_SET_NO":999,"REV_AT_EPOCH":78166,"BSTAR":0.00020603195,"MEAN_MOTION_DOT":1.41e-5,"MEAN_MOTION_DDOT":0},{"OBJECT_NAME":"PROBA-V","OBJECT_ID":"2013-021A","EPOCH":"2026-03-04T11:08:36.641472","MEAN_MOTION":14.23572178,"ECCENTRICITY":0.00053884,"INCLINATION":98.3498,"RA_OF_ASC_NODE":47.291,"ARG_OF_PERICENTER":81.8512,"MEAN_ANOMALY":278.3278,"EPHEMERIS_TYPE":0,"CLASSIFICATION_TYPE":"U","NORAD_CAT_ID":39159,"ELEMENT_SET_NO":999,"REV_AT_EPOCH":66621,"BSTAR":7.546599e-5,"MEAN_MOTION_DOT":1.31e-6,"MEAN_MOTION_DDOT":0},{"OBJECT_NAME":"APRIZESAT 7","OBJECT_ID":"2013-066A","EPOCH":"2026-03-04T10:11:13.373376","MEAN_MOTION":14.91263069,"ECCENTRICITY":0.00354116,"INCLINATION":97.759,"RA_OF_ASC_NODE":18.2464,"ARG_OF_PERICENTER":196.3756,"MEAN_ANOMALY":163.6322,"EPHEMERIS_TYPE":0,"CLASSIFICATION_TYPE":"U","NORAD_CAT_ID":39416,"ELEMENT_SET_NO":999,"REV_AT_EPOCH":66561,"BSTAR":0.00024805095,"MEAN_MOTION_DOT":2.44e-5,"MEAN_MOTION_DDOT":0},{"OBJECT_NAME":"APRIZESAT 8","OBJECT_ID":"2013-066K","EPOCH":"2026-03-04T16:14:05.077824","MEAN_MOTION":14.87406443,"ECCENTRICITY":0.0044596,"INCLINATION":97.8112,"RA_OF_ASC_NODE":12.6908,"ARG_OF_PERICENTER":270.03,"MEAN_ANOMALY":89.5806,"EPHEMERIS_TYPE":0,"CLASSIFICATION_TYPE":"U","NORAD_CAT_ID":39425,"ELEMENT_SET_NO":999,"REV_AT_EPOCH":66413,"BSTAR":0.00021784,"MEAN_MOTION_DOT":1.949e-5,"MEAN_MOTION_DDOT":0},{"OBJECT_NAME":"BUGSAT-1 (TITA)","OBJECT_ID":"2014-033E","EPOCH":"2026-03-04T19:33:48.608352","MEAN_MOTION":15.14423536,"ECCENTRICITY":0.0028946,"INCLINATION":98.0442,"RA_OF_ASC_NODE":150.3628,"ARG_OF_PERICENTER":174.5883,"MEAN_ANOMALY":185.5665,"EPHEMERIS_TYPE":0,"CLASSIFICATION_TYPE":"U","NORAD_CAT_ID":40014,"ELEMENT_SET_NO":999,"REV_AT_EPOCH":64003,"BSTAR":0.00050956,"MEAN_MOTION_DOT":9.389e-5,"MEAN_MOTION_DDOT":0},{"OBJECT_NAME":"SAUDISAT 4","OBJECT_ID":"2014-033G","EPOCH":"2026-03-04T10:08:19.773312","MEAN_MOTION":14.79378917,"ECCENTRICITY":0.00460387,"INCLINATION":97.7401,"RA_OF_ASC_NODE":213.2851,"ARG_OF_PERICENTER":55.502,"MEAN_ANOMALY":305.0527,"EPHEMERIS_TYPE":0,"CLASSIFICATION_TYPE":"U","NORAD_CAT_ID":40016,"ELEMENT_SET_NO":999,"REV_AT_EPOCH":63058,"BSTAR":0.00017673806,"MEAN_MOTION_DOT":1.289e-5,"MEAN_MOTION_DDOT":0},{"OBJECT_NAME":"APRIZESAT 9","OBJECT_ID":"2014-033J","EPOCH":"2026-03-04T08:06:31.561056","MEAN_MOTION":14.74059728,"ECCENTRICITY":0.00664707,"INCLINATION":97.8871,"RA_OF_ASC_NODE":199.2125,"ARG_OF_PERICENTER":176.3027,"MEAN_ANOMALY":183.8687,"EPHEMERIS_TYPE":0,"CLASSIFICATION_TYPE":"U","NORAD_CAT_ID":40018,"ELEMENT_SET_NO":999,"REV_AT_EPOCH":62811,"BSTAR":0.00023998491,"MEAN_MOTION_DOT":1.584e-5,"MEAN_MOTION_DDOT":0},{"OBJECT_NAME":"APRIZESAT 10","OBJECT_ID":"2014-033K","EPOCH":"2026-03-04T08:38:55.436640","MEAN_MOTION":14.70740981,"ECCENTRICITY":0.00777608,"INCLINATION":97.947,"RA_OF_ASC_NODE":192.7696,"ARG_OF_PERICENTER":248.1681,"MEAN_ANOMALY":111.1241,"EPHEMERIS_TYPE":0,"CLASSIFICATION_TYPE":"U","NORAD_CAT_ID":40019,"ELEMENT_SET_NO":999,"REV_AT_EPOCH":62684,"BSTAR":0.00019628439,"MEAN_MOTION_DOT":1.201e-5,"MEAN_MOTION_DDOT":0},{"OBJECT_NAME":"TECHDEMOSAT-1 (TDS-1)","OBJECT_ID":"2014-037H","EPOCH":"2026-03-04T11:51:18.975168","MEAN_MOTION":15.11437697,"ECCENTRICITY":0.00046554,"INCLINATION":98.3767,"RA_OF_ASC_NODE":45.5122,"ARG_OF_PERICENTER":261.1076,"MEAN_ANOMALY":98.9625,"EPHEMERIS_TYPE":0,"CLASSIFICATION_TYPE":"U","NORAD_CAT_ID":40076,"ELEMENT_SET_NO":999,"REV_AT_EPOCH":63240,"BSTAR":0.0010414129,"MEAN_MOTION_DOT":0.00017564,"MEAN_MOTION_DDOT":0},{"OBJECT_NAME":"TECHNOSAT","OBJECT_ID":"2017-042E","EPOCH":"2026-03-04T10:32:28.491360","MEAN_MOTION":15.04232602,"ECCENTRICITY":0.00197035,"INCLINATION":97.4145,"RA_OF_ASC_NODE":225.2099,"ARG_OF_PERICENTER":92.1413,"MEAN_ANOMALY":268.207,"EPHEMERIS_TYPE":0,"CLASSIFICATION_TYPE":"U","NORAD_CAT_ID":42829,"ELEMENT_SET_NO":999,"REV_AT_EPOCH":47095,"BSTAR":0.00047073279,"MEAN_MOTION_DOT":6.515e-5,"MEAN_MOTION_DDOT":0}]
