PROBA-1                 
1 26958U 01049B   26063.84389697  .00002944  00000+0  19416-3 0  9997
2 26958  97.9622  68.7541 0056986 114.9006 245.8158 15.06989543327907
CUTE-1 (CO-55)          
1 27844U 03031E   26063.50570256  .00000469  00000+0  22228-3 0  9996
2 27844  98.6779  73.3688 0010519 125.9821 234.2335 14.24261171176771
CUBESAT XI-IV (CO-57)   
1 27848U 03031J   26062.94998598  .00000409  00000+0  19861-3 0  9993
2 27848  98.6808  72.6171 0010137 144.0340 216.1522 14.23556668176405
APRIZESAT 4             
1 35684U 09041D   26063.19222317  .00001280  00000+0  15966-3 0  9994
2 35684  98.1497 136.4014 0042274 303.0599  56.6557 14.83696823895795
APRIZESAT 3             
1 35686U 09041F   26063.62754945  .00003266  00000+0  28644-3 0  9994
2 35686  98.1890 211.9601 0063217  53.2921 307.4084 14.95876880900748
PROBA-2                 
1 36037U 09059B   26063.76805435  .00000446  00000+0  11465-3 0  9990
2 36037  98.2426 248.5700 0012140 240.6141 119.3844 14.54787265866340
APRIZESAT 5             
1 37792U 11044E   26063.75550775  .00002073  00000+0  26999-3 0  9995
2 37792  98.2403 353.8917 0052081 340.5447  19.3775 14.80838790783339
APRIZESAT 6             
1 37793U 11044F   26063.27527683  .00001410  00000+0  20603-3 0  9995
2 37793  98.2423 331.6159 0044484  62.3796  52.8397 14.76739097781669
PROBA-V                 
1 39159U 13021A   26063.46431298  .00000131  00000+0  75466-4 0  9994
2 39159  98.3498  47.2910 0005388  81.8512 278.3278 14.23572178666210
APRIZESAT 7             
1 39416U 13066A   26063.42446034  .00002440  00000+0  24805-3 0  9994
2 39416  97.7590  18.2464 0035411 196.3756 163.6322 14.91263069665616
APRIZESAT 8             
1 39425U 13066K   26063.67644766  .00001949  00000+0  21784-3 0  9999
2 39425  97.8112  12.6908 0044596 270.0300  89.5806 14.87406443664136
BUGSAT-1 (TITA)         
1 40014U 14033E   26063.81514593  .00009389  00000+0  50956-3 0  9999
2 40014  98.0442 150.3628 0028946 174.5883 185.5665 15.14423536640031
SAUDISAT 4              
1 40016U 14033G   26063.42245108  .00001289  00000+0  17674-3 0  9992
2 40016  97.7401 213.2851 0046038  55.5020 305.0527 14.79378917630581
APRIZESAT 9             
1 40018U 14033J   26063.33786529  .00001584  00000+0  23998-3 0  9995
2 40018  97.8871 199.2125 0066470 176.3027 183.8687 14.74059728628119
APRIZESAT 10            
1 40019U 14033K   26063.36036385  .00001201  00000+0  19628-3 0  9998
2 40019  97.9470 192.7696 0077760 248.1681 111.1241 14.70740981626847
TECHDEMOSAT-1 (TDS-1)   
1 40076U 14037H   26063.49396962  .00017564  00000+0  10414-2 0  9991
2 40076  98.3767  45.5122 0004655 261.1076  98.9625 15.11437697632409
TECHNOSAT               
1 42829U 17042E   26063.43921865  .00006515  00000+0  47073-3 0  9994
2 42829  97.4145 225.2099 0019703  92.1413 268.2070 15.04232602470951
